[{"OBJECT_NAME":"GLOBAL-2","OBJECT_ID":"2018-099BG","EPOCH":"2026-03-09T16:47:21.463008","MEAN_MOTION":15.08046936,"ECCENTRICITY":0.00074537,"INCLINATION":97.3697,"RA_OF_ASC_NODE":109.328,"ARG_OF_PERICENTER":127.1924,"MEAN_ANOMALY":232.9986,"EPHEMERIS_TYPE":0,"CLASSIFICATION_TYPE":"U","NORAD_CAT_ID":43812,"ELEMENT_SET_NO":999,"REV_AT_EPOCH":39691,"BSTAR":0.0002614533,"MEAN_MOTION_DOT":3.97e-5,"MEAN_MOTION_DDOT":0},{"OBJECT_NAME":"STARLINK-3457","OBJECT_ID":"2022-016AS","EPOCH":"2026-03-09T22:23:05.298144","MEAN_MOTION":15.08835783,"ECCENTRICITY":0.00013516,"INCLINATION":53.2177,"RA_OF_ASC_NODE":307.7882,"ARG_OF_PERICENTER":98.3855,"MEAN_ANOMALY":261.7291,"EPHEMERIS_TYPE":0,"CLASSIFICATION_TYPE":"U","NORAD_CAT_ID":51754,"ELEMENT_SET_NO":999,"REV_AT_EPOCH":22374,"BSTAR":-1.4664417e-5,"MEAN_MOTION_DOT":-5.21e-6,"MEAN_MOTION_DDOT":0}]
